{
  "type": "FeatureCollection",
  "features": [
    {
      "type": "Feature",
      "properties": {
        "norad_id": 37238,
        "name": "INTELSAT 17 (IS-17)",
        "group": "intelsat",
        "lat": 0.0037655956484476806,
        "lon": 128.4182529117794,
        "alt_km": 35793.59146904913,
        "timestamp": "2025-12-12T22:42:12.217759+00:00",
        "meta_object_name": "INTELSAT 17 (IS-17)",
        "meta_object_id": "2010-065B",
        "meta_epoch": "2025-12-12T05:13:51.060576",
        "meta_mean_motion": 1.00271326,
        "meta_eccentricity": 0.00025201,
        "meta_inclination": 0.009,
        "meta_ra_of_asc_node": 304.4439,
        "meta_arg_of_pericenter": 318.0417,
        "meta_mean_anomaly": 323.1553,
        "meta_ephemeris_type": 0,
        "meta_classification_type": "U",
        "meta_norad_cat_id": 37238,
        "meta_element_set_no": 999,
        "meta_rev_at_epoch": 5137,
        "meta_bstar": 0,
        "meta_mean_motion_dot": 8e-08,
        "meta_mean_motion_ddot": 0,
        "tle_line1": "1 37238U 10065B   25346.21795209  .00000008  00000+0  00000+0 0  9996",
        "tle_line2": "2 37238   0.0090 304.4439 0002520 318.0417 323.1553  1.00271326 51374"
      },
      "geometry": {
        "type": "Point",
        "coordinates": [
          128.4182529117794,
          0.0037655956484476806
        ]
      }
    },
    {
      "type": "Feature",
      "properties": {
        "norad_id": 37392,
        "name": "INTELSAT 28 (IS-28)",
        "group": "intelsat",
        "lat": -1.0600980316434518,
        "lon": 30.789247177217995,
        "alt_km": 35795.21208020361,
        "timestamp": "2025-12-12T22:42:12.217771+00:00",
        "meta_object_name": "INTELSAT 28 (IS-28)",
        "meta_object_id": "2011-016A",
        "meta_epoch": "2025-12-12T06:28:51.378240",
        "meta_mean_motion": 1.00273226,
        "meta_eccentricity": 0.00038117,
        "meta_inclination": 1.3236,
        "meta_ra_of_asc_node": 85.0564,
        "meta_arg_of_pericenter": 180.3773,
        "meta_mean_anomaly": 241.3113,
        "meta_ephemeris_type": 0,
        "meta_classification_type": "U",
        "meta_norad_cat_id": 37392,
        "meta_element_set_no": 999,
        "meta_rev_at_epoch": 5141,
        "meta_bstar": 0,
        "meta_mean_motion_dot": -2.15e-06,
        "meta_mean_motion_ddot": 0,
        "tle_line1": "1 37392U 11016A   25346.27003910 -.00000215  00000+0  00000+0 0  9992",
        "tle_line2": "2 37392   1.3236  85.0564 0003811 180.3773 241.3113  1.00273226 51410"
      },
      "geometry": {
        "type": "Point",
        "coordinates": [
          30.789247177217995,
          -1.0600980316434518
        ]
      }
    },
    {
      "type": "Feature",
      "properties": {
        "norad_id": 37834,
        "name": "INTELSAT 18 (IS-18)",
        "group": "intelsat",
        "lat": -0.025255384092167737,
        "lon": -117.5874213450655,
        "alt_km": 35778.97799573861,
        "timestamp": "2025-12-12T22:42:12.217782+00:00",
        "meta_object_name": "INTELSAT 18 (IS-18)",
        "meta_object_id": "2011-056A",
        "meta_epoch": "2025-12-12T05:46:32.928960",
        "meta_mean_motion": 1.00271614,
        "meta_eccentricity": 0.00018959,
        "meta_inclination": 0.0122,
        "meta_ra_of_asc_node": 299.9441,
        "meta_arg_of_pericenter": 330.2292,
        "meta_mean_anomaly": 77.6472,
        "meta_ephemeris_type": 0,
        "meta_classification_type": "U",
        "meta_norad_cat_id": 37834,
        "meta_element_set_no": 999,
        "meta_rev_at_epoch": 5193,
        "meta_bstar": 0,
        "meta_mean_motion_dot": 6.3e-07,
        "meta_mean_motion_ddot": 0,
        "tle_line1": "1 37834U 11056A   25346.24065890  .00000063  00000+0  00000+0 0  9999",
        "tle_line2": "2 37834   0.0122 299.9441 0001895 330.2292  77.6472  1.00271614 51937"
      },
      "geometry": {
        "type": "Point",
        "coordinates": [
          -117.5874213450655,
          -0.025255384092167737
        ]
      }
    },
    {
      "type": "Feature",
      "properties": {
        "norad_id": 38098,
        "name": "INTELSAT 22 (IS-22)",
        "group": "intelsat",
        "lat": 0.009964106164929284,
        "lon": 134.5345517026098,
        "alt_km": 35791.29667843766,
        "timestamp": "2025-12-12T22:42:12.217795+00:00",
        "meta_object_name": "INTELSAT 22 (IS-22)",
        "meta_object_id": "2012-011A",
        "meta_epoch": "2025-12-12T01:59:38.789376",
        "meta_mean_motion": 1.00271162,
        "meta_eccentricity": 0.00017392,
        "meta_inclination": 0.0016,
        "meta_ra_of_asc_node": 358.3788,
        "meta_arg_of_pericenter": 269.5928,
        "meta_mean_anomaly": 275.096,
        "meta_ephemeris_type": 0,
        "meta_classification_type": "U",
        "meta_norad_cat_id": 38098,
        "meta_element_set_no": 999,
        "meta_rev_at_epoch": 531,
        "meta_bstar": 0,
        "meta_mean_motion_dot": -5e-07,
        "meta_mean_motion_ddot": 0,
        "tle_line1": "1 38098U 12011A   25346.08308784 -.00000050  00000+0  00000+0 0  9995",
        "tle_line2": "2 38098   0.0016 358.3788 0001739 269.5928 275.0960  1.00271162  5318"
      },
      "geometry": {
        "type": "Point",
        "coordinates": [
          134.5345517026098,
          0.009964106164929284
        ]
      }
    },
    {
      "type": "Feature",
      "properties": {
        "norad_id": 38356,
        "name": "INTELSAT 19 (IS-19)",
        "group": "intelsat",
        "lat": -0.02396234320838563,
        "lon": -131.58533403018063,
        "alt_km": 35774.987979537946,
        "timestamp": "2025-12-12T22:42:12.217808+00:00",
        "meta_object_name": "INTELSAT 19 (IS-19)",
        "meta_object_id": "2012-030A",
        "meta_epoch": "2025-12-12T05:01:38.705664",
        "meta_mean_motion": 1.00272347,
        "meta_eccentricity": 0.00034292,
        "meta_inclination": 0.009,
        "meta_ra_of_asc_node": 353.6966,
        "meta_arg_of_pericenter": 275.9513,
        "meta_mean_anomaly": 52.9321,
        "meta_ephemeris_type": 0,
        "meta_classification_type": "U",
        "meta_norad_cat_id": 38356,
        "meta_element_set_no": 999,
        "meta_rev_at_epoch": 4857,
        "meta_bstar": 0,
        "meta_mean_motion_dot": -4.6e-07,
        "meta_mean_motion_ddot": 0,
        "tle_line1": "1 38356U 12030A   25346.20947576 -.00000046  00000+0  00000+0 0  9990",
        "tle_line2": "2 38356   0.0090 353.6966 0003429 275.9513  52.9321  1.00272347 48576"
      },
      "geometry": {
        "type": "Point",
        "coordinates": [
          -131.58533403018063,
          -0.02396234320838563
        ]
      }
    },
    {
      "type": "Feature",
      "properties": {
        "norad_id": 38740,
        "name": "INTELSAT 20 (IS-20)",
        "group": "intelsat",
        "lat": 0.0007166842700782987,
        "lon": 130.9079857944875,
        "alt_km": 35779.70930615383,
        "timestamp": "2025-12-12T22:42:12.217820+00:00",
        "meta_object_name": "INTELSAT 20 (IS-20)",
        "meta_object_id": "2012-043A",
        "meta_epoch": "2025-12-11T19:58:55.649856",
        "meta_mean_motion": 1.00270334,
        "meta_eccentricity": 0.00027081,
        "meta_inclination": 0.0053,
        "meta_ra_of_asc_node": 83.8279,
        "meta_arg_of_pericenter": 100.6018,
        "meta_mean_anomaly": 264.5986,
        "meta_ephemeris_type": 0,
        "meta_classification_type": "U",
        "meta_norad_cat_id": 38740,
        "meta_element_set_no": 999,
        "meta_rev_at_epoch": 4887,
        "meta_bstar": 0,
        "meta_mean_motion_dot": -1.6e-07,
        "meta_mean_motion_ddot": 0,
        "tle_line1": "1 38740U 12043A   25345.83258854 -.00000016  00000+0  00000+0 0  9990",
        "tle_line2": "2 38740   0.0053  83.8279 0002708 100.6018 264.5986  1.00270334 48879"
      },
      "geometry": {
        "type": "Point",
        "coordinates": [
          130.9079857944875,
          0.0007166842700782987
        ]
      }
    },
    {
      "type": "Feature",
      "properties": {
        "norad_id": 38749,
        "name": "INTELSAT 21 (IS-21)",
        "group": "intelsat",
        "lat": -0.010362296486542494,
        "lon": 4.45347056827455,
        "alt_km": 35788.1891303896,
        "timestamp": "2025-12-12T22:42:12.217832+00:00",
        "meta_object_name": "INTELSAT 21 (IS-21)",
        "meta_object_id": "2012-045A",
        "meta_epoch": "2025-12-12T06:21:22.093920",
        "meta_mean_motion": 1.0027254,
        "meta_eccentricity": 0.00018332,
        "meta_inclination": 0.0247,
        "meta_ra_of_asc_node": 66.7287,
        "meta_arg_of_pericenter": 190.9328,
        "meta_mean_anomaly": 220.8965,
        "meta_ephemeris_type": 0,
        "meta_classification_type": "U",
        "meta_norad_cat_id": 38749,
        "meta_element_set_no": 999,
        "meta_rev_at_epoch": 4865,
        "meta_bstar": 0,
        "meta_mean_motion_dot": -2.75e-06,
        "meta_mean_motion_ddot": 0,
        "tle_line1": "1 38749U 12045A   25346.26483905 -.00000275  00000+0  00000+0 0  9993",
        "tle_line2": "2 38749   0.0247  66.7287 0001833 190.9328 220.8965  1.00272540 48655"
      },
      "geometry": {
        "type": "Point",
        "coordinates": [
          4.45347056827455,
          -0.010362296486542494
        ]
      }
    }
  ]
}